{
    "type": "FeatureCollection",
    "features": [
        {
            "type": "Feature",
            "id": "boundary",
            "geometry": {
                "type": "Polygon",
                "coordinates": [
                    [
                        [
                            230497.65374,
                            1110394.529969
                        ],
                        [
                            229922.55157,
                            1111309.7081600002
                        ],
                        [
                            229876.71691800002,
                            1111281.138865
                        ],
                        [
                            229743.58408300002,
                            1111247.275844
                        ],
                        [
                            229732.03432500002,
                            1111209.5159790001
                        ],
                        [
                            229708.54944200002,
                            1111191.695402
                        ],
                        [
                            229700.45333000002,
                            1111166.9118360002
                        ],
                        [
                            229671.083033,
                            1111146.6968460002
                        ],
                        [
                            229654.82742900003,
                            1111106.5497730002
                        ],
                        [
                            229624.20589100002,
                            1111096.925099
                        ],
                        [
                            229584.518232,
                            1111030.714145
                        ],
                        [
                            229584.190352,
                            1110902.3476020002
                        ],
                        [
                            229595.04695000002,
                            1110867.089413
                        ],
                        [
                            229599.60249100003,
                            1110857.872408
                        ],
                        [
                            229482.54966100003,
                            1110888.893658
                        ],
                        [
                            229354.21620700002,
                            1110840.9390870002
                        ],
                        [
                            229278.25181400002,
                            1110726.20221
                        ],
                        [
                            229306.15688300002,
                            1110610.967933
                        ],
                        [
                            229240.493472,
                            1110544.5820590002
                        ],
                        [
                            229258.71621400001,
                            1110465.79077
                        ],
                        [
                            229297.837459,
                            1110440.1364600002
                        ],
                        [
                            229269.64861600002,
                            1110418.7509130002
                        ],
                        [
                            229253.62636400003,
                            1110342.0882130002
                        ],
                        [
                            229271.517475,
                            1110313.9379830002
                        ],
                        [
                            229301.19710100003,
                            1110288.220803
                        ],
                        [
                            229274.288268,
                            1110251.531019
                        ],
                        [
                            229307.06492,
                            1110113.93686
                        ],
                        [
                            229300.17596800003,
                            1110084.4445200001
                        ],
                        [
                            229272.008078,
                            1110059.523794
                        ],
                        [
                            229192.75285800002,
                            1109994.219366
                        ],
                        [
                            229145.152398,
                            1109962.104251
                        ],
                        [
                            229146.69489400001,
                            1109906.751875
                        ],
                        [
                            229223.54953800002,
                            1109888.408182
                        ],
                        [
                            229290.744994,
                            1109937.818753
                        ],
                        [
                            229305.827775,
                            1109977.9670250001
                        ],
                        [
                            229405.8715,
                            1110023.3867050002
                        ],
                        [
                            229460.35896,
                            1109995.476647
                        ],
                        [
                            229515.27290900002,
                            1110016.4077740002
                        ],
                        [
                            229569.788486,
                            1109984.376163
                        ],
                        [
                            229632.21570300002,
                            1110005.404672
                        ],
                        [
                            229663.06957800002,
                            1109953.0158850001
                        ],
                        [
                            229741.29270700002,
                            1109878.563819
                        ],
                        [
                            229969.185663,
                            1110018.9063290001
                        ],
                        [
                            230048.27766800002,
                            1110005.2178910002
                        ],
                        [
                            230087.68868100003,
                            1110018.397415
                        ],
                        [
                            230173.746587,
                            1110163.249023
                        ],
                        [
                            230173.322197,
                            1110202.401827
                        ],
                        [
                            230222.47893500002,
                            1110252.9371870002
                        ],
                        [
                            230297.661109,
                            1110300.9279570002
                        ],
                        [
                            230497.65374,
                            1110394.529969
                        ]
                    ]
                ]
            },
            "properties": {
                "crs": "EPSG:4093",
                "name": "boundary"
            }
        },
        {
            "type": "Feature",
            "id": "tasks",
            "geometry": {
                "type": "MultiLineString",
                "coordinates": [
                    [
                        [
                            229654.82742900003,
                            1111106.5497730002
                        ],
                        [
                            229614.572774,
                            1111080.8541630001
                        ]
                    ],
                    [
                        [
                            229937.02149800002,
                            1111286.6817080001
                        ],
                        [
                            229654.82742900003,
                            1111106.5497730002
                        ]
                    ],
                    [
                        [
                            229700.78104300002,
                            1111167.9150210002
                        ],
                        [
                            229922.65524000002,
                            1111309.543186
                        ]
                    ],
                    [
                        [
                            229795.688682,
                            1111260.5289170002
                        ],
                        [
                            229735.97986000002,
                            1111222.4151960001
                        ]
                    ],
                    [
                        [
                            229743.58408300002,
                            1111247.275844
                        ],
                        [
                            229743.58408300002,
                            1111247.275844
                        ]
                    ],
                    [
                        [
                            229599.60249100003,
                            1110857.872408
                        ],
                        [
                            229293.658472,
                            1110662.5802530001
                        ]
                    ],
                    [
                        [
                            229286.94015500002,
                            1110690.323614
                        ],
                        [
                            229564.14337300003,
                            1110867.269756
                        ]
                    ],
                    [
                        [
                            229528.68425400002,
                            1110876.6671040002
                        ],
                        [
                            229280.22183800003,
                            1110718.066975
                        ]
                    ],
                    [
                        [
                            229304.21177800003,
                            1110765.4122290001
                        ],
                        [
                            229493.22513600002,
                            1110886.0644520002
                        ]
                    ],
                    [
                        [
                            229397.95570800002,
                            1110857.2832980002
                        ],
                        [
                            229340.94229900002,
                            1110820.8901320002
                        ]
                    ],
                    [
                        [
                            229614.572774,
                            1111080.8541630001
                        ],
                        [
                            229937.02149800002,
                            1111286.6817080001
                        ]
                    ],
                    [
                        [
                            229951.387755,
                            1111263.8202300002
                        ],
                        [
                            229584.51547800002,
                            1111029.635956
                        ]
                    ],
                    [
                        [
                            229584.43352700002,
                            1110997.551804
                        ],
                        [
                            229965.75401300003,
                            1111240.9587510002
                        ]
                    ],
                    [
                        [
                            229980.12027100002,
                            1111218.097273
                        ],
                        [
                            229584.35157600002,
                            1110965.467652
                        ]
                    ],
                    [
                        [
                            229584.26962600002,
                            1110933.3835000002
                        ],
                        [
                            229994.48652900002,
                            1111195.235795
                        ]
                    ],
                    [
                        [
                            230008.852787,
                            1111172.3743160001
                        ],
                        [
                            229584.45966700002,
                            1110901.4729680002
                        ]
                    ],
                    [
                        [
                            229592.70264600002,
                            1110874.7028390002
                        ],
                        [
                            230023.21904400003,
                            1111149.5128380002
                        ]
                    ],
                    [
                        [
                            230032.74283,
                            1111134.357338
                        ],
                        [
                            230032.74283,
                            1111134.357338
                        ]
                    ],
                    [
                        [
                            230343.275315,
                            1110640.1972180002
                        ],
                        [
                            229181.31671900002,
                            1109898.488326
                        ]
                    ],
                    [
                        [
                            229146.64921700003,
                            1109908.3909830002
                        ],
                        [
                            230328.909057,
                            1110663.0586960001
                        ]
                    ],
                    [
                        [
                            230314.54280000002,
                            1110685.920174
                        ],
                        [
                            229145.772192,
                            1109939.862995
                        ]
                    ],
                    [
                        [
                            229234.037394,
                            1110028.2368480002
                        ],
                        [
                            230300.176542,
                            1110708.781653
                        ]
                    ],
                    [
                        [
                            230285.810284,
                            1110731.6431310002
                        ],
                        [
                            229305.128824,
                            1110105.6482280002
                        ]
                    ],
                    [
                        [
                            229301.89996200002,
                            1110135.6190000002
                        ],
                        [
                            230271.444026,
                            1110754.5046090002
                        ]
                    ],
                    [
                        [
                            230257.07776800002,
                            1110777.3660880001
                        ],
                        [
                            229295.27669300002,
                            1110163.4230330002
                        ]
                    ],
                    [
                        [
                            229288.65342500003,
                            1110191.2270660002
                        ],
                        [
                            230242.711511,
                            1110800.227566
                        ]
                    ],
                    [
                        [
                            230228.345253,
                            1110823.089044
                        ],
                        [
                            229282.03015600002,
                            1110219.031099
                        ]
                    ],
                    [
                        [
                            229275.40688700002,
                            1110246.835132
                        ],
                        [
                            230213.978995,
                            1110845.9505230002
                        ]
                    ],
                    [
                        [
                            230199.61273700002,
                            1110868.8120010002
                        ],
                        [
                            229296.473115,
                            1110292.314103
                        ]
                    ],
                    [
                        [
                            229275.186942,
                            1110310.758417
                        ],
                        [
                            230185.24647900002,
                            1110891.67348
                        ]
                    ],
                    [
                        [
                            230170.880222,
                            1110914.534958
                        ],
                        [
                            229259.531491,
                            1110332.796969
                        ]
                    ],
                    [
                        [
                            229258.20166400002,
                            1110363.979945
                        ],
                        [
                            230156.513964,
                            1110937.396436
                        ]
                    ],
                    [
                        [
                            230142.14770600002,
                            1110960.2579150002
                        ],
                        [
                            229265.92681,
                            1110400.942951
                        ]
                    ],
                    [
                        [
                            229287.63126300002,
                            1110446.829318
                        ],
                        [
                            230127.78144800002,
                            1110983.1193930001
                        ]
                    ],
                    [
                        [
                            230113.41519000003,
                            1111005.980871
                        ],
                        [
                            229262.87886800003,
                            1110463.0610500001
                        ]
                    ],
                    [
                        [
                            229253.34653,
                            1110489.008148
                        ],
                        [
                            230099.048933,
                            1111028.84235
                        ]
                    ],
                    [
                        [
                            230084.68267500002,
                            1111051.7038280002
                        ],
                        [
                            229246.89125100002,
                            1110516.919413
                        ]
                    ],
                    [
                        [
                            229241.25907600002,
                            1110545.356087
                        ],
                        [
                            230070.31641700002,
                            1111074.5653060002
                        ]
                    ],
                    [
                        [
                            230055.95015900003,
                            1111097.4267850001
                        ],
                        [
                            229304.511277,
                            1110617.7634800002
                        ]
                    ],
                    [
                        [
                            229297.79296000002,
                            1110645.5068410002
                        ],
                        [
                            230041.583901,
                            1111120.288263
                        ]
                    ],
                    [
                        [
                            229293.658472,
                            1110662.5802530001
                        ],
                        [
                            229293.658472,
                            1110662.5802530001
                        ]
                    ],
                    [
                        [
                            229181.31671900002,
                            1109898.488326
                        ],
                        [
                            229305.827775,
                            1109977.9670250001
                        ]
                    ],
                    [
                        [
                            229275.164453,
                            1109926.361975
                        ],
                        [
                            229217.84077,
                            1109889.7707530002
                        ]
                    ],
                    [
                        [
                            230482.378495,
                            1110418.837948
                        ],
                        [
                            229699.01942700002,
                            1109918.799144
                        ]
                    ],
                    [
                        [
                            229678.87510300003,
                            1109937.97233
                        ],
                        [
                            230468.01223700002,
                            1110441.699426
                        ]
                    ],
                    [
                        [
                            230453.64598,
                            1110464.5609050002
                        ],
                        [
                            229660.11652100002,
                            1109958.030072
                        ]
                    ],
                    [
                        [
                            229646.405968,
                            1109981.3101040001
                        ],
                        [
                            230439.279722,
                            1110487.4223830001
                        ]
                    ],
                    [
                        [
                            230424.913464,
                            1110510.283861
                        ],
                        [
                            229632.695416,
                            1110004.5901360002
                        ]
                    ],
                    [
                        [
                            229559.925764,
                            1109990.171184
                        ],
                        [
                            230410.54720600002,
                            1110533.14534
                        ]
                    ],
                    [
                        [
                            230396.18094800002,
                            1110556.0068180002
                        ],
                        [
                            229533.79640100003,
                            1110005.5239620002
                        ]
                    ],
                    [
                        [
                            229479.015935,
                            1110002.587982
                        ],
                        [
                            230381.81469000003,
                            1110578.8682960002
                        ]
                    ],
                    [
                        [
                            230367.448433,
                            1110601.7297750001
                        ],
                        [
                            229436.68871000002,
                            1110007.6012360002
                        ]
                    ],
                    [
                        [
                            229408.84838200003,
                            1110021.861859
                        ],
                        [
                            230353.08217500002,
                            1110624.591253
                        ]
                    ],
                    [
                        [
                            230343.275315,
                            1110640.1972180002
                        ],
                        [
                            229305.827775,
                            1109977.9670250001
                        ]
                    ],
                    [
                        [
                            230497.65374,
                            1110394.529969
                        ],
                        [
                            230297.661109,
                            1110300.9279570002
                        ]
                    ],
                    [
                        [
                            230472.711069,
                            1110412.6669740002
                        ],
                        [
                            230483.177945,
                            1110417.5657580001
                        ]
                    ],
                    [
                        [
                            229699.01942700002,
                            1109918.799144
                        ],
                        [
                            230297.661109,
                            1110300.9279570002
                        ]
                    ],
                    [
                        [
                            230173.460789,
                            1110189.615768
                        ],
                        [
                            229719.16375100001,
                            1109899.625958
                        ]
                    ],
                    [
                        [
                            229739.30807600002,
                            1109880.452773
                        ],
                        [
                            230168.49932300003,
                            1110154.416893
                        ]
                    ],
                    [
                        [
                            230137.84277400002,
                            1110102.8161670002
                        ],
                        [
                            229998.454292,
                            1110013.8408130002
                        ]
                    ],
                    [
                        [
                            230037.93172400002,
                            1110007.0084610002
                        ],
                        [
                            230107.186225,
                            1110051.2154400002
                        ]
                    ],
                    [
                        [
                            230087.68868100003,
                            1110018.397415
                        ],
                        [
                            230087.68868100003,
                            1110018.397415
                        ]
                    ]
                ]
            },
            "properties": {
                "crs": "EPSG:4093",
                "name": "tasks"
            }
        }
    ]
}