{
    "type": "FeatureCollection",
    "features": [
        {
            "type": "Feature",
            "properties": {"stroke": "#f05656", "stroke-width": 2, "stroke-opacity": 1, "fill": "#b3b3b3", "fill-opacity": 0.5},
            "geometry": {
                "coordinates": [
                    [
                        [9.42571324084642, 54.952615782731385],
                        [9.424609752953387, 54.95470859089281],
                        [9.425929399789311, 54.95477019837398],
                        [9.426916452706081, 54.95520144809768],
                        [9.426948639113874, 54.9559592040994],
                        [9.42699155445743, 54.95630419404094],
                        [9.426841350753307, 54.95649516934213],
                        [9.426519485671491, 54.95663069965022],
                        [9.425950857359794, 54.95674774818488],
                        [9.42422351475372, 54.95810918241054],
                        [9.423161362332365, 54.958429511330934],
                        [9.422646378201648, 54.958848401550085],
                        [9.422356699628295, 54.959002404209286],
                        [9.421916817349654, 54.95935352806498],
                        [9.421294544858313, 54.95972312880889],
                        [9.420908306760566, 54.960061926504125],
                        [9.418859099072677, 54.96100438506525],
                        [9.417925690335608, 54.960788791919725],
                        [9.417934834703402, 54.95893654720737],
                        [9.417334019884379, 54.958801024676205],
                        [9.41656154368772, 54.95910902976749],
                        [9.416186034424953, 54.95890574667226],
                        [9.41674393390042, 54.95851765790681],
                        [9.416990697130188, 54.95841909508414],
                        [9.417226731523783, 54.958252769772],
                        [9.417473494752386, 54.9581603665234],
                        [9.417698800309836, 54.9578215527938],
                        [9.417537867769454, 54.95743345355689],
                        [9.417913377031027, 54.957378010502794],
                        [9.41802066539168, 54.95780923224092],
                        [9.419050633653058, 54.95809260400597],
                        [9.419211566194605, 54.95830821161911],
                        [9.419651448473246, 54.95832669221801],
                        [9.419662177308226, 54.95810492447228],
                        [9.419876754029502, 54.957260963804],
                        [9.420284449799624, 54.95690366124603],
                        [9.419619261964755, 54.95519102901332],
                        [9.419683634980657, 54.95498772609619],
                        [9.420456111177316, 54.95475361843262],
                        [9.420541941865594, 54.95451950940526],
                        [9.420488297685836, 54.95307169959665],
                        [9.42571324084642, 54.952615782731385]
                    ]
                ],
                "type": "Polygon"
            },
            "id": 0
        }
    ]
}
